STARLINK-31442          
1 59859U 24098B   26067.98862602 -.00000728  00000+0 -16929-4 0  9990
2 59859  43.0040 285.8538 0001272 275.8834  84.1873 15.27569616101693
TRANSPORTER-14 OBJECT AC
1 64554U 25135AC  26068.82113864  .00024574  00000+0  93234-3 0  9990
2 64554  97.4518 185.7428 0001008 268.0523  92.0600 15.26845403 39827
